#                       ## fig show lyddane fix error with gsfc ver
# -5184 -4896 120
1 04632U 70093B   04031.91070959 -.00000084  00000-0  10000-3 0  9955
2 04632  11.4628 273.1101 1450506 207.6000 143.9350  1.20231981 44145
